{"type": "FeatureCollection", "features": [ {"type": "Feature", "properties": {"norad_id": 33492, "name": "GOSAT (IBUKI)", "group": "resource", "lat": -27.27984408266414, "lon": -80.02104478347458, "alt_km": 674.8990403558219, "timestamp": "2025-12-21T16:47:54.385490+00:00", "meta": {"OBJECT_NAME": "GOSAT (IBUKI)", "OBJECT_ID": "2009-002A", "EPOCH": "2025-12-21T10:56:49.039296", "MEAN_MOTION": 14.67540935, "ECCENTRICITY": 9.93e-05, "INCLINATION": 98.0772, "RA_OF_ASC_NODE": 103.9383, "ARG_OF_PERICENTER": 101.8654, "MEAN_ANOMALY": 258.2662, "EPHEMERIS_TYPE": 0, "CLASSIFICATION_TYPE": "U", "NORAD_CAT_ID": 33492, "ELEMENT_SET_NO": 999, "REV_AT_EPOCH": 90539, "BSTAR": 0.00012513, "MEAN_MOTION_DOT": 6.62e-06, "MEAN_MOTION_DDOT": 0}, "tle": {"line1": "1 33492U 09002A   25355.45612314  .00000662  00000+0  12513-3 0  9996", "line2": "2 33492  98.0772 103.9383 0000993 101.8654 258.2662 14.67540935905390"}}, "geometry": {"type": "Point", "coordinates": [-80.02104478347458, -27.27984408266414]}}, {"type": "Feature", "properties": {"norad_id": 35681, "name": "DEIMOS-1", "group": "resource", "lat": 15.826606717115542, "lon": -21.912004598540527, "alt_km": 646.2881686286673, "timestamp": "2025-12-21T16:47:54.385501+00:00", "meta": {"OBJECT_NAME": "DEIMOS-1", "OBJECT_ID": "2009-041A", "EPOCH": "2025-12-21T12:48:05.851584", "MEAN_MOTION": 14.74963577, "ECCENTRICITY": 0.0002576, "INCLINATION": 97.7145, "RA_OF_ASC_NODE": 155.7271, "ARG_OF_PERICENTER": 65.7085, "MEAN_ANOMALY": 294.4393, "EPHEMERIS_TYPE": 0, "CLASSIFICATION_TYPE": "U", "NORAD_CAT_ID": 35681, "ELEMENT_SET_NO": 999, "REV_AT_EPOCH": 88069, "BSTAR": 3.6668e-05, "MEAN_MOTION_DOT": 1.99e-06, "MEAN_MOTION_DDOT": 0}, "tle": {"line1": "1 35681U 09041A   25355.53340106  .00000199  00000+0  36668-4 0  9990", "line2": "2 35681  97.7145 155.7271 0002576  65.7085 294.4393 14.74963577880695"}}, "geometry": {"type": "Point", "coordinates": [-21.912004598540527, 15.826606717115542]}}, {"type": "Feature", "properties": {"norad_id": 35682, "name": "DUBAISAT-1", "group": "resource", "lat": 81.75132933200388, "lon": 50.86831015809458, "alt_km": 645.1634452676635, "timestamp": "2025-12-21T16:47:54.385512+00:00", "meta": {"OBJECT_NAME": "DUBAISAT-1", "OBJECT_ID": "2009-041B", "EPOCH": "2025-12-21T06:37:47.237088", "MEAN_MOTION": 14.74625795, "ECCENTRICITY": 0.0009241, "INCLINATION": 97.9798, "RA_OF_ASC_NODE": 125.8306, "ARG_OF_PERICENTER": 283.8068, "MEAN_ANOMALY": 76.2112, "EPHEMERIS_TYPE": 0, "CLASSIFICATION_TYPE": "U", "NORAD_CAT_ID": 35682, "ELEMENT_SET_NO": 999, "REV_AT_EPOCH": 87887, "BSTAR": 0.0001605, "MEAN_MOTION_DOT": 1.02e-05, "MEAN_MOTION_DDOT": 0}, "tle": {"line1": "1 35682U 09041B   25355.27624117  .00001020  00000+0  16050-3 0  9995", "line2": "2 35682  97.9798 125.8306 0009241 283.8068  76.2112 14.74625795878878"}}, "geometry": {"type": "Point", "coordinates": [50.86831015809458, 81.75132933200388]}}, {"type": "Feature", "properties": {"norad_id": 35931, "name": "OCEANSAT-2", "group": "resource", "lat": 9.630638897336718, "lon": -6.014400539358187, "alt_km": 885.2739109837557, "timestamp": "2025-12-21T16:47:54.385523+00:00", "meta": {"OBJECT_NAME": "OCEANSAT-2", "OBJECT_ID": "2009-051A", "EPOCH": "2025-12-21T13:19:14.905632", "MEAN_MOTION": 13.99622994, "ECCENTRICITY": 0.0015991, "INCLINATION": 98.2217, "RA_OF_ASC_NODE": 355.2612, "ARG_OF_PERICENTER": 21.9419, "MEAN_ANOMALY": 338.2429, "EPHEMERIS_TYPE": 0, "CLASSIFICATION_TYPE": "U", "NORAD_CAT_ID": 35931, "ELEMENT_SET_NO": 999, "REV_AT_EPOCH": 85448, "BSTAR": -4.8974e-05, "MEAN_MOTION_DOT": -1.09e-06, "MEAN_MOTION_DDOT": 0}, "tle": {"line1": "1 35931U 09051A   25355.55503363 -.00000109  00000+0 -48974-4 0  9993", "line2": "2 35931  98.2217 355.2612 0015991  21.9419 338.2429 13.99622994854481"}}, "geometry": {"type": "Point", "coordinates": [-6.014400539358187, 9.630638897336718]}}, {"type": "Feature", "properties": {"norad_id": 35946, "name": "WORLDVIEW-2 (WV-2)", "group": "resource", "lat": -77.87939562989986, "lon": 110.64970888007126, "alt_km": 775.5723555838376, "timestamp": "2025-12-21T16:47:54.385534+00:00", "meta": {"OBJECT_NAME": "WORLDVIEW-2 (WV-2)", "OBJECT_ID": "2009-055A", "EPOCH": "2025-12-21T12:09:55.283040", "MEAN_MOTION": 14.37727569, "ECCENTRICITY": 0.0004877, "INCLINATION": 98.4778, "RA_OF_ASC_NODE": 66.4711, "ARG_OF_PERICENTER": 49.1744, "MEAN_ANOMALY": 310.9865, "EPHEMERIS_TYPE": 0, "CLASSIFICATION_TYPE": "U", "NORAD_CAT_ID": 35946, "ELEMENT_SET_NO": 999, "REV_AT_EPOCH": 85011, "BSTAR": 5.8671e-05, "MEAN_MOTION_DOT": 1.33e-06, "MEAN_MOTION_DDOT": 0}, "tle": {"line1": "1 35946U 09055A   25355.50688985  .00000133  00000+0  58671-4 0  9992", "line2": "2 35946  98.4778  66.4711 0004877  49.1744 310.9865 14.37727569850110"}}, "geometry": {"type": "Point", "coordinates": [110.64970888007126, -77.87939562989986]}}, {"type": "Feature", "properties": {"norad_id": 36036, "name": "SMOS", "group": "resource", "lat": 18.905609427457687, "lon": 177.701529119258, "alt_km": 759.1993009972366, "timestamp": "2025-12-21T16:47:54.385544+00:00", "meta": {"OBJECT_NAME": "SMOS", "OBJECT_ID": "2009-059A", "EPOCH": "2025-12-21T11:42:22.095072", "MEAN_MOTION": 14.39748569, "ECCENTRICITY": 0.0001069, "INCLINATION": 98.438, "RA_OF_ASC_NODE": 180.4067, "ARG_OF_PERICENTER": 84.057, "MEAN_ANOMALY": 276.074, "EPHEMERIS_TYPE": 0, "CLASSIFICATION_TYPE": "U", "NORAD_CAT_ID": 36036, "ELEMENT_SET_NO": 999, "REV_AT_EPOCH": 84788, "BSTAR": 0.00011357, "MEAN_MOTION_DOT": 3.12e-06, "MEAN_MOTION_DDOT": 0}, "tle": {"line1": "1 36036U 09059A   25355.48775573  .00000312  00000+0  11357-3 0  9992", "line2": "2 36036  98.4380 180.4067 0001069  84.0570 276.0740 14.39748569847885"}}, "geometry": {"type": "Point", "coordinates": [177.701529119258, 18.905609427457687]}}, {"type": "Feature", "properties": {"norad_id": 36110, "name": "YAOGAN-7", "group": "resource", "lat": -11.990682135198304, "lon": -120.85733669736803, "alt_km": 642.9179302974471, "timestamp": "2025-12-21T16:47:54.385555+00:00", "meta": {"OBJECT_NAME": "YAOGAN-7", "OBJECT_ID": "2009-069A", "EPOCH": "2025-12-21T10:21:10.226304", "MEAN_MOTION": 14.77744116, "ECCENTRICITY": 0.0023374, "INCLINATION": 98.0296, "RA_OF_ASC_NODE": 237.1571, "ARG_OF_PERICENTER": 251.6264, "MEAN_ANOMALY": 108.2405, "EPHEMERIS_TYPE": 0, "CLASSIFICATION_TYPE": "U", "NORAD_CAT_ID": 36110, "ELEMENT_SET_NO": 999, "REV_AT_EPOCH": 86337, "BSTAR": 7.7563e-05, "MEAN_MOTION_DOT": 5.05e-06, "MEAN_MOTION_DDOT": 0}, "tle": {"line1": "1 36110U 09069A   25355.43136836  .00000505  00000+0  77563-4 0  9990", "line2": "2 36110  98.0296 237.1571 0023374 251.6264 108.2405 14.77744116863377"}}, "geometry": {"type": "Point", "coordinates": [-120.85733669736803, -11.990682135198304]}}, {"type": "Feature", "properties": {"norad_id": 36605, "name": "TANDEM-X", "group": "resource", "lat": 52.401719232555145, "lon": -169.27437709358787, "alt_km": 502.80052469397106, "timestamp": "2025-12-21T16:47:54.385566+00:00", "meta": {"OBJECT_NAME": "TANDEM-X", "OBJECT_ID": "2010-030A", "EPOCH": "2025-12-20T11:47:12.909696", "MEAN_MOTION": 15.19154059, "ECCENTRICITY": 0.00018, "INCLINATION": 97.4444, "RA_OF_ASC_NODE": 359.7582, "ARG_OF_PERICENTER": 78.1402, "MEAN_ANOMALY": 282.0034, "EPHEMERIS_TYPE": 0, "CLASSIFICATION_TYPE": "U", "NORAD_CAT_ID": 36605, "ELEMENT_SET_NO": 999, "REV_AT_EPOCH": 85951, "BSTAR": 3.1882e-05, "MEAN_MOTION_DOT": 6.03e-06, "MEAN_MOTION_DDOT": 0}, "tle": {"line1": "1 36605U 10030A   25354.49112164  .00000603  00000+0  31882-4 0  9995", "line2": "2 36605  97.4444 359.7582 0001800  78.1402 282.0034 15.19154059859511"}}, "geometry": {"type": "Point", "coordinates": [-169.27437709358787, 52.401719232555145]}}, {"type": "Feature", "properties": {"norad_id": 36795, "name": "CARTOSAT-2B", "group": "resource", "lat": -52.586098463313235, "lon": 54.74112310010527, "alt_km": 642.3658779765346, "timestamp": "2025-12-21T16:47:54.385576+00:00", "meta": {"OBJECT_NAME": "CARTOSAT-2B", "OBJECT_ID": "2010-035A", "EPOCH": "2025-12-21T12:10:00.860160", "MEAN_MOTION": 14.78737871, "ECCENTRICITY": 0.001279, "INCLINATION": 97.7844, "RA_OF_ASC_NODE": 44.2526, "ARG_OF_PERICENTER": 50.8084, "MEAN_ANOMALY": 309.4261, "EPHEMERIS_TYPE": 0, "CLASSIFICATION_TYPE": "U", "NORAD_CAT_ID": 36795, "ELEMENT_SET_NO": 999, "REV_AT_EPOCH": 83359, "BSTAR": 0.00015364, "MEAN_MOTION_DOT": 1.079e-05, "MEAN_MOTION_DDOT": 0}, "tle": {"line1": "1 36795U 10035A   25355.50695440  .00001079  00000+0  15364-3 0  9990", "line2": "2 36795  97.7844  44.2526 0012790  50.8084 309.4261 14.78737871833594"}}, "geometry": {"type": "Point", "coordinates": [54.74112310010527, -52.586098463313235]}}, {"type": "Feature", "properties": {"norad_id": 36834, "name": "YAOGAN-10", "group": "resource", "lat": -36.72825455820437, "lon": -170.50340550968662, "alt_km": 621.8493873664893, "timestamp": "2025-12-21T16:47:54.385586+00:00", "meta": {"OBJECT_NAME": "YAOGAN-10", "OBJECT_ID": "2010-038A", "EPOCH": "2025-12-21T13:16:03.360288", "MEAN_MOTION": 14.846364, "ECCENTRICITY": 0.0001383, "INCLINATION": 97.913, "RA_OF_ASC_NODE": 15.3074, "ARG_OF_PERICENTER": 77.2068, "MEAN_ANOMALY": 73.9995, "EPHEMERIS_TYPE": 0, "CLASSIFICATION_TYPE": "U", "NORAD_CAT_ID": 36834, "ELEMENT_SET_NO": 999, "REV_AT_EPOCH": 83084, "BSTAR": 0.00011715, "MEAN_MOTION_DOT": 9.36e-06, "MEAN_MOTION_DDOT": 0}, "tle": {"line1": "1 36834U 10038A   25355.55281667  .00000936  00000+0  11715-3 0  9991", "line2": "2 36834  97.9130  15.3074 0001383  77.2068  73.9995 14.84636400830841"}}, "geometry": {"type": "Point", "coordinates": [-170.50340550968662, -36.72825455820437]}}]}